[{"OBJECT_NAME":"STARLINK-30052","OBJECT_ID":"2023-119K","EPOCH":"2026-03-09T22:00:01.999584","MEAN_MOTION":15.18817261,"ECCENTRICITY":0.0001361,"INCLINATION":42.9994,"RA_OF_ASC_NODE":79.4905,"ARG_OF_PERICENTER":256.0949,"MEAN_ANOMALY":348.0898,"EPHEMERIS_TYPE":0,"CLASSIFICATION_TYPE":"U","NORAD_CAT_ID":57611,"ELEMENT_SET_NO":999,"REV_AT_EPOCH":572,"BSTAR":0.053443655,"MEAN_MOTION_DOT":0.01240173,"MEAN_MOTION_DDOT":0},{"OBJECT_NAME":"CZ-6A DEB","OBJECT_ID":"2022-151SL","EPOCH":"2026-03-09T10:13:37.626816","MEAN_MOTION":15.13067162,"ECCENTRICITY":0.00442991,"INCLINATION":99.1095,"RA_OF_ASC_NODE":231.9477,"ARG_OF_PERICENTER":182.6933,"MEAN_ANOMALY":177.4061,"EPHEMERIS_TYPE":0,"CLASSIFICATION_TYPE":"U","NORAD_CAT_ID":54947,"ELEMENT_SET_NO":999,"REV_AT_EPOCH":17723,"BSTAR":0.0054047259,"MEAN_MOTION_DOT":0.00099065,"MEAN_MOTION_DDOT":0}]
